SAR-LUPE 2              
1 31797U 07030A   26173.76787946  .00000240  00000+0  60767-5 0  9996
2 31797  98.1037 278.8948 0002998 164.1618 195.9726 15.50994060 57806
SAPPHIRE                
1 39088U 13009C   26173.80876782  .00000070  00000+0  39415-4 0  9998
2 39088  98.4264 353.1310 0010271 228.1672 131.8638 14.35241797697384
PRAETORIAN SDA_602      
1 65565U 25203A   26173.51723197  .00000088  00000+0  67732-4 0  9997
2 65565  81.3030   5.8311 0006092 171.1355 188.9911 13.84278305 39439
PRAETORIAN SDA_603      
1 65566U 25203B   26173.47307195  .00000131  00000+0  10777-3 0  9994
2 65566  81.3037   5.7920 0009622 173.1210 187.0080 13.83906334 39432
PRAETORIAN SDA_604      
1 65567U 25203C   26173.27903183  .00000045  00000+0  30362-4 0  9999
2 65567  81.3053   6.3916 0005558 177.2076 182.9112 13.83047812 39383
PRAETORIAN SDA_605      
1 65568U 25203D   26173.24294384  .00000048  00000+0  32626-4 0  9991
2 65568  81.3018   6.0831 0008359 169.3609 190.7726 13.83434593 39399
PRAETORIAN SDA_606      
1 65569U 25203E   26173.80506352  .00000059  00000+0  42774-4 0  9992
2 65569  81.3052   5.7889 0006295 170.4598 189.6679 13.83198397 39465
PRAETORIAN SDA_607      
1 65570U 25203F   26173.51954840  .00000163  00000+0  13533-3 0  9997
2 65570  81.3037   5.7060 0008986 172.9156 187.2130 13.84285615 39442
PRAETORIAN SDA_608      
1 65571U 25203G   26173.49874539  .00000041  00000+0  26327-4 0  9992
2 65571  81.3006   5.8894 0006075 176.0191 184.1015 13.83817190 39420
PRAETORIAN SDA_609      
1 65572U 25203H   26173.50214830  .00000067  00000+0  49038-4 0  9999
2 65572  81.3046   5.8683 0007001 170.8698 189.2587 13.84209426 39434
PRAETORIAN SDA_610      
1 65573U 25203J   26173.47866753  .00000045  00000+0  30141-4 0  9994
2 65573  81.3007   5.8664 0006845 175.7596 184.3620 13.83767828 39424
PRAETORIAN SDA_611      
1 65574U 25203K   26173.48122242  .00000256  00000+0  22279-3 0  9990
2 65574  81.3017   6.0335 0005594 179.5052 180.6111 13.83309193 39413
PRAETORIAN SDA_612      
1 65575U 25203L   26173.53647010  .00000159  00000+0  13044-3 0  9994
2 65575  81.3028   5.5556 0009392 172.1471 187.9835 13.85039542 39456
PRAETORIAN SDA_613      
1 65576U 25203M   26173.27297454  .00000052  00000+0  36892-4 0  9998
2 65576  81.2998   6.2270 0005843 169.9698 190.1576 13.82765467 39384
PRAETORIAN SDA_614      
1 65577U 25203N   26173.23764266  .00000050  00000+0  33737-4 0  9998
2 65577  81.3014   5.9117 0007301 169.8728 190.2577 13.84777604 39419
PRAETORIAN SDA_615      
1 65578U 25203P   26173.50485827  .00000201  00000+0  16870-3 0  9998
2 65578  81.3019   5.6305 0009288 170.5981 189.5352 13.84436297 39442
PRAETORIAN SDA_616      
1 65579U 25203Q   26173.48059449  .00000169  00000+0  14324-3 0  9998
2 65579  81.3063   6.1830 0005559 177.2385 182.8803 13.83268317 39419
PRAETORIAN SDA_617      
1 65580U 25203R   26173.28563527  .00000024  00000+0  10688-4 0  9995
2 65580  81.3036   6.1937 0007549 170.2062 189.9243 13.83150158 39391
PRAETORIAN SDA_618      
1 65581U 25203S   26173.47001395  .00000174  00000+0  14395-3 0  9991
2 65581  81.3023   5.5911 0009877 173.2620 186.8672 13.84670045 39443
PRAETORIAN SDA_619      
1 65582U 25203T   26173.50925592  .00000218  00000+0  18585-3 0  9994
2 65582  81.3043   5.8599 0008393 171.4080 188.7222 13.83806044 40064
PRAETORIAN SDA_620      
1 65583U 25203U   26173.46565259  .00000123  00000+0  10031-3 0  9993
2 65583  81.3035   5.9229 0007840 167.1206 193.0152 13.83618615 39429
PRAETORIAN SDA_621      
1 65584U 25203V   26173.51104546  .00000043  00000+0  27947-4 0  9994
2 65584  81.3020   5.7961 0007653 164.4005 195.7389 13.83801584 39435
PRAETORIAN SDA_601      
1 65585U 25203W   26173.48411272 -.00000133  00000+0 -13202-3 0  9998
2 65585  81.3049   6.1236 0005535 181.4247 178.6895 13.83167918 39417
VICTUS HAZE PUMA        
1 69646U 26142A   26173.87545911  .00005235  00000+0  16376-3 0  9995
2 69646  97.3999  71.4164 0007920  30.0686 330.1010 15.33552352   533
