OBJECT_NAME,OBJECT_ID,EPOCH,MEAN_MOTION,ECCENTRICITY,INCLINATION,RA_OF_ASC_NODE,ARG_OF_PERICENTER,MEAN_ANOMALY,EPHEMERIS_TYPE,CLASSIFICATION_TYPE,NORAD_CAT_ID,ELEMENT_SET_NO,REV_AT_EPOCH,BSTAR,MEAN_MOTION_DOT,MEAN_MOTION_DDOT
SAR-LUPE 2,2007-030A,2026-06-22T18:25:44.785344,15.50994060,.00029983,98.1037,278.8948,164.1618,195.9726,0,U,31797,999,5780,.6076692E-5,.24E-5,0
SAPPHIRE,2013-009C,2026-06-22T19:24:37.539648,14.35241797,.00102714,98.4264,353.1310,228.1672,131.8638,0,U,39088,999,69738,.39415073E-4,.7E-6,0
PRAETORIAN SDA_602,2025-203A,2026-06-22T12:24:48.842208,13.84278305,.00060923,81.3030,5.8311,171.1355,188.9911,0,U,65565,999,3943,.67731738E-4,.88E-6,0
PRAETORIAN SDA_603,2025-203B,2026-06-22T11:21:13.416480,13.83906334,.0009622,81.3037,5.7920,173.1210,187.0080,0,U,65566,999,3943,.10777491E-3,.131E-5,0
PRAETORIAN SDA_604,2025-203C,2026-06-22T06:41:48.350112,13.83047812,.00055584,81.3053,6.3916,177.2076,182.9112,0,U,65567,999,3938,.30362064E-4,.45E-6,0
PRAETORIAN SDA_605,2025-203D,2026-06-22T05:49:50.347776,13.83434593,.00083595,81.3018,6.0831,169.3609,190.7726,0,U,65568,999,3939,.32625645E-4,.48E-6,0
PRAETORIAN SDA_606,2025-203E,2026-06-22T19:19:17.488128,13.83198397,.00062951,81.3052,5.7889,170.4598,189.6679,0,U,65569,999,3946,.4277445E-4,.59E-6,0
PRAETORIAN SDA_607,2025-203F,2026-06-22T12:28:08.981760,13.84285615,.00089864,81.3037,5.7060,172.9156,187.2130,0,U,65570,999,3944,.1353321E-3,.163E-5,0
PRAETORIAN SDA_608,2025-203G,2026-06-22T11:58:11.601696,13.83817190,.00060753,81.3006,5.8894,176.0191,184.1015,0,U,65571,999,3942,.26327432E-4,.41E-6,0
PRAETORIAN SDA_609,2025-203H,2026-06-22T12:03:05.613120,13.84209426,.00070013,81.3046,5.8683,170.8698,189.2587,0,U,65572,999,3943,.49038192E-4,.67E-6,0
PRAETORIAN SDA_610,2025-203J,2026-06-22T11:29:16.874592,13.83767828,.00068453,81.3007,5.8664,175.7596,184.3620,0,U,65573,999,3942,.30140658E-4,.45E-6,0
PRAETORIAN SDA_611,2025-203K,2026-06-22T11:32:57.617088,13.83309193,.00055947,81.3017,6.0335,179.5052,180.6111,0,U,65574,999,3941,.22279417E-3,.256E-5,0
PRAETORIAN SDA_612,2025-203L,2026-06-22T12:52:31.016640,13.85039542,.00093927,81.3028,5.5556,172.1471,187.9835,0,U,65575,999,3945,.13044176E-3,.159E-5,0
PRAETORIAN SDA_613,2025-203M,2026-06-22T06:33:05.000256,13.82765467,.00058439,81.2998,6.2270,169.9698,190.1576,0,U,65576,999,3938,.36892199E-4,.52E-6,0
PRAETORIAN SDA_614,2025-203N,2026-06-22T05:42:12.325824,13.84777604,.00073016,81.3014,5.9117,169.8728,190.2577,0,U,65577,999,3941,.33736756E-4,.5E-6,0
PRAETORIAN SDA_615,2025-203P,2026-06-22T12:06:59.754528,13.84436297,.00092886,81.3019,5.6305,170.5981,189.5352,0,U,65578,999,3944,.16870449E-3,.201E-5,0
PRAETORIAN SDA_616,2025-203Q,2026-06-22T11:32:03.363936,13.83268317,.00055596,81.3063,6.1830,177.2385,182.8803,0,U,65579,999,3941,.14323689E-3,.169E-5,0
PRAETORIAN SDA_617,2025-203R,2026-06-22T06:51:18.887328,13.83150158,.00075494,81.3036,6.1937,170.2062,189.9243,0,U,65580,999,3939,.106881E-4,.24E-6,0
PRAETORIAN SDA_618,2025-203S,2026-06-22T11:16:49.205280,13.84670045,.00098777,81.3023,5.5911,173.2620,186.8672,0,U,65581,999,3944,.14395438E-3,.174E-5,0
PRAETORIAN SDA_619,2025-203T,2026-06-22T12:13:19.711488,13.83806044,.0008393,81.3043,5.8599,171.4080,188.7222,0,U,65582,999,4006,.18584642E-3,.218E-5,0
PRAETORIAN SDA_620,2025-203U,2026-06-22T11:10:32.383776,13.83618615,.00078409,81.3035,5.9229,167.1206,193.0152,0,U,65583,999,3942,.10030759E-3,.123E-5,0
PRAETORIAN SDA_621,2025-203V,2026-06-22T12:15:54.327744,13.83801584,.00076539,81.3020,5.7961,164.4005,195.7389,0,U,65584,999,3943,.27946862E-4,.43E-6,0
PRAETORIAN SDA_601,2025-203W,2026-06-22T11:37:07.339008,13.83167918,.00055351,81.3049,6.1236,181.4247,178.6895,0,U,65585,999,3941,-.13202461E-3,-.133E-5,0
VICTUS HAZE PUMA,2026-142A,2026-06-22T21:00:39.667104,15.33552352,.00079201,97.3999,71.4164,30.0686,330.1010,0,U,69646,999,53,.16375767E-3,.5235E-4,0
